NORAD_CAT_ID,OBJECT_NAME,OBJECT_TYPE,EPOCH,MEAN_MOTION,ECCENTRICITY,INCLINATION,RA_OF_ASC_NODE,ARG_OF_PERICENTER,MEAN_ANOMALY,BSTAR,MEAN_MOTION_DOT,MEAN_MOTION_DDOT,TLE_LINE0,TLE_LINE1,TLE_LINE2,SEMIMAJOR_AXIS,PERIOD,APOGEE,PERIGEE,DECAYED
52454.0,STARLINK-3888,PAYLOAD,2023-05-07 22:02:51,15.08826213,9.81e-05,53.217,43.3659,102.6605,257.4497,-0.00014726,-2.63e-05,0.0,0 STARLINK-3888,1 52454U 22049D   23127.91865364 -.00002630  00000-0 -14726-3 0  9990,2 52454  53.2170  43.3659 0000981 102.6605 257.4497 15.08826213 55596,6917.923,95.438,540.466,539.109,0.0
52454.0,STARLINK-3888,PAYLOAD,2023-05-08 01:13:37,15.08830594,9.48e-05,53.217,42.7711,98.4688,261.6411,-7.4986e-05,-1.481e-05,0.0,0 STARLINK-3888,1 52454U 22049D   23128.05113228 -.00001481  00000-0 -74986-4 0  9999,2 52454  53.2170  42.7711 0000948  98.4688 261.6411 15.08830594 55774,6917.909,95.438,540.43,539.118,0.0
52454.0,STARLINK-3888,PAYLOAD,2023-05-08 21:53:38,15.08847772,9.6e-05,53.2173,38.9041,104.3105,255.7994,8.3507e-05,1.042e-05,0.0,0 STARLINK-3888,1 52454U 22049D   23128.91224599  .00001042  00000-0  83507-4 0  9998,2 52454  53.2173  38.9041 0000960 104.3105 255.7994 15.08847772 55748,6917.857,95.437,540.386,539.058,0.0
52454.0,STARLINK-3888,PAYLOAD,2023-05-08 23:29:01,15.08847953,9.53e-05,53.2171,38.6072,107.74,252.3697,0.00024966,3.689e-05,0.0,0 STARLINK-3888,1 52454U 22049D   23128.97848713  .00003689  00000-0  24966-3 0  9996,2 52454  53.2171  38.6072 0000953 107.7400 252.3697 15.08847953 55917,6917.856,95.437,540.38,539.062,0.0
52454.0,STARLINK-3888,PAYLOAD,2023-05-10 04:05:57,15.08849343,8.11e-05,53.217,33.2551,101.2041,258.9042,0.00029703,4.444e-05,0.0,0 STARLINK-3888,1 52454U 22049D   23130.17080860  .00004444  00000-0  29703-3 0  9996,2 52454  53.2170  33.2551 0000811 101.2041 258.9042 15.08849343 55935,6917.852,95.437,540.278,539.156,0.0
52454.0,STARLINK-3888,PAYLOAD,2023-05-11 00:45:58,15.08850146,0.000108,53.2176,29.3899,83.6666,276.4449,9.857e-05,1.282e-05,0.0,0 STARLINK-3888,1 52454U 22049D   23131.03192634  .00001282  00000-0  98570-4 0  9991,2 52454  53.2176  29.3899 0001080  83.6666 276.4449 15.08850146 56061,6917.849,95.437,540.462,538.967,0.0
52454.0,STARLINK-3888,PAYLOAD,2023-05-11 23:01:23,15.08835927,0.0001102,53.2171,25.2264,80.474,279.6376,2.878e-05,1.7e-06,0.0,0 STARLINK-3888,1 52454U 22049D   23131.95929582  .00000170  00000-0  28780-4 0  9993,2 52454  53.2171  25.2264 0001102  80.4740 279.6376 15.08835927 56367,6917.893,95.438,540.52,538.995,0.0
52454.0,STARLINK-3888,PAYLOAD,2023-05-12 00:36:46,15.08838367,9.26e-05,53.2174,24.9287,82.5921,277.5176,4.7619e-05,4.7e-06,0.0,0 STARLINK-3888,1 52454U 22049D   23132.02553586  .00000470  00000-0  47619-4 0  9994,2 52454  53.2174  24.9287 0000926  82.5921 277.5176 15.08838367 56218,6917.885,95.438,540.391,539.11,0.0
52454.0,STARLINK-3888,PAYLOAD,2023-05-12 21:16:46,15.08850843,0.0001025,53.2172,21.0623,65.7027,294.4072,0.00028896,4.315e-05,0.0,0 STARLINK-3888,1 52454U 22049D   23132.88665297  .00004315  00000-0  28896-3 0  9998,2 52454  53.2172  21.0623 0001025  65.7027 294.4072 15.08850843 56349,6917.847,95.437,540.421,539.003,0.0
52454.0,STARLINK-3888,PAYLOAD,2023-05-12 22:52:09,15.08855025,9.7e-05,53.2168,20.7652,74.4539,285.656,0.00037437,5.678e-05,0.0,0 STARLINK-3888,1 52454U 22049D   23132.95289141  .00005678  00000-0  37437-3 0  9990,2 52454  53.2168  20.7652 0000970  74.4539 285.6560 15.08855025 56515,6917.834,95.437,540.37,539.028,0.0
52454.0,STARLINK-3888,PAYLOAD,2023-05-13 00:27:32,15.0885848,9.79e-05,53.217,20.4666,82.2576,277.8527,0.00059986,9.277e-05,0.0,0 STARLINK-3888,1 52454U 22049D   23133.01913109  .00009277  00000-0  59986-3 0  9998,2 52454  53.2170  20.4666 0000979  82.2576 277.8527 15.08858480 56364,6917.824,95.436,540.366,539.012,0.0
52454.0,STARLINK-3888,PAYLOAD,2023-05-13 21:07:33,15.08845336,0.0001133,53.2174,16.6006,102.6304,257.4815,0.00014701,2.053e-05,0.0,0 STARLINK-3888,1 52454U 22049D   23133.88025327  .00002053  00000-0  14701-3 0  9990,2 52454  53.2174  16.6006 0001133 102.6304 257.4815 15.08845336 56496,6917.864,95.437,540.513,538.945,0.0
52454.0,STARLINK-3888,PAYLOAD,2023-05-13 22:42:57,15.08843594,0.0001127,53.2177,16.3043,83.4292,276.6828,0.0001134,1.518e-05,0.0,0 STARLINK-3888,1 52454U 22049D   23133.94649458  .00001518  00000-0  11340-3 0  9995,2 52454  53.2177  16.3043 0001127  83.4292 276.6828 15.08843594 56662,6917.869,95.437,540.514,538.955,0.0
52454.0,STARLINK-3888,PAYLOAD,2023-05-14 20:58:21,15.08843277,0.0001008,53.2176,12.1422,91.4095,268.7013,4.6264e-05,4.49e-06,0.0,0 STARLINK-3888,1 52454U 22049D   23134.87385420  .00000449  00000-0  46264-4 0  9990,2 52454  53.2176  12.1422 0001008  91.4095 268.7013 15.08843277 56648,6917.87,95.437,540.433,539.038,0.0
52454.0,STARLINK-3888,PAYLOAD,2023-05-14 22:33:43,15.08847651,0.0001078,53.2174,11.8432,93.857,266.2546,2.6254e-05,1.3e-06,0.0,0 STARLINK-3888,1 52454U 22049D   23134.94009172  .00000130  00000-0  26254-4 0  9999,2 52454  53.2174  11.8432 0001078  93.8570 266.2546 15.08847651 56659,6917.857,95.437,540.468,538.976,0.0
52454.0,STARLINK-3888,PAYLOAD,2023-05-15 16:02:59,15.08835434,0.0001152,53.2176,8.5762,93.0725,267.0399,6.3398e-05,7.21e-06,0.0,0 STARLINK-3888,1 52454U 22049D   23135.66873909  .00000721  00000-0  63398-4 0  9992,2 52454  53.2176   8.5762 0001152  93.0725 267.0399 15.08835434 56928,6917.894,95.438,540.556,538.962,0.0
52454.0,STARLINK-3888,PAYLOAD,2023-05-15 22:24:31,15.08840399,0.0001155,53.2176,7.3868,92.603,267.5094,9.977e-05,1.3e-05,0.0,0 STARLINK-3888,1 52454U 22049D   23135.93369680  .00001300  00000-0  99770-4 0  9995,2 52454  53.2176   7.3868 0001155  92.6030 267.5094 15.08840399 56809,6917.879,95.438,540.543,538.945,0.0
52454.0,STARLINK-3888,PAYLOAD,2023-05-16 22:15:18,15.08838737,0.0001145,53.2175,2.9244,93.2742,266.8381,2.4348e-05,1e-06,0.0,0 STARLINK-3888,1 52454U 22049D   23136.92729788  .00000100  00000-0  24348-4 0  9990,2 52454  53.2175   2.9244 0001145  93.2742 266.8381 15.08838737 57112,6917.884,95.438,540.541,538.957,0.0
52454.0,STARLINK-3888,PAYLOAD,2023-05-17 20:30:42,15.08838252,0.0001114,53.2179,358.7616,104.3807,255.7309,6.9024e-05,8.11e-06,0.0,0 STARLINK-3888,1 52454U 22049D   23137.85466160  .00000811  00000-0  69024-4 0  9994,2 52454  53.2179 358.7616 0001114 104.3807 255.7309 15.08838252 57099,6917.886,95.438,540.521,538.98,0.0
52454.0,STARLINK-3888,PAYLOAD,2023-05-18 01:16:51,15.08841864,0.0001007,53.2171,357.8687,97.4025,262.7082,8.4135e-05,1.052e-05,0.0,0 STARLINK-3888,1 52454U 22049D   23138.05337848  .00001052  00000-0  84135-4 0  9995,2 52454  53.2171 357.8687 0001007  97.4025 262.7082 15.08841864 57284,6917.875,95.437,540.436,539.043,0.0
52454.0,STARLINK-3888,PAYLOAD,2023-05-18 13:59:57,15.08837015,0.0001119,53.2177,355.4896,90.0963,270.0157,9.2541e-05,1.185e-05,0.0,0 STARLINK-3888,1 52454U 22049D   23138.58330188  .00001185  00000-0  92541-4 0  9990,2 52454  53.2177 355.4896 0001119  90.0963 270.0157 15.08837015 57200,6917.89,95.438,540.529,538.98,0.0
52454.0,STARLINK-3888,PAYLOAD,2023-05-18 15:35:20,15.0883719,0.0001126,53.2178,355.1922,89.7702,270.3419,9.2147e-05,1.179e-05,0.0,0 STARLINK-3888,1 52454U 22049D   23138.64954190  .00001179  00000-0  92147-4 0  9997,2 52454  53.2178 355.1922 0001126  89.7702 270.3419 15.08837190 57211,6917.889,95.438,540.533,538.975,0.0
52454.0,STARLINK-3888,PAYLOAD,2023-05-19 17:01:30,15.08842223,0.0001146,53.2178,350.4341,86.5716,273.5407,7.6122e-05,9.24e-06,0.0,0 STARLINK-3888,1 52454U 22049D   23139.70938015  .00000924  00000-0  76122-4 0  9995,2 52454  53.2178 350.4341 0001146  86.5716 273.5407 15.08842223 57536,6917.874,95.437,540.531,538.946,0.0
52454.0,STARLINK-3888,PAYLOAD,2023-05-19 21:47:39,15.08846469,0.0001114,53.2179,349.5421,86.208,273.9039,0.00010598,1.4e-05,0.0,0 STARLINK-3888,1 52454U 22049D   23139.90809633  .00001400  00000-0  10598-3 0  9994,2 52454  53.2179 349.5421 0001114  86.2080 273.9039 15.08846469 57408,6917.861,95.437,540.496,538.955,0.0
52454.0,STARLINK-3888,PAYLOAD,2023-05-19 23:23:02,15.08847227,0.000112,53.2179,349.2447,85.9623,274.1497,0.00011112,1.481e-05,0.0,0 STARLINK-3888,1 52454U 22049D   23139.97433556  .00001481  00000-0  11112-3 0  9990,2 52454  53.2179 349.2447 0001120  85.9623 274.1497 15.08847227 57571,6917.858,95.437,540.498,538.948,0.0
52454.0,STARLINK-3888,PAYLOAD,2023-05-20 20:03:02,15.0885142,0.000106,53.2177,345.3791,90.0749,270.0364,0.00012559,1.712e-05,0.0,0 STARLINK-3888,1 52454U 22049D   23140.83545022  .00001712  00000-0  12559-3 0  9992,2 52454  53.2177 345.3791 0001060  90.0749 270.0364 15.08851420 57542,6917.845,95.437,540.444,538.977,0.0
52454.0,STARLINK-3888,PAYLOAD,2023-05-21 13:32:18,15.08837564,0.0001147,53.2181,342.1082,84.6335,275.4788,-2.3208e-05,-6.57e-06,0.0,0 STARLINK-3888,1 52454U 22049D   23141.56410462 -.00000657  00000-0 -23208-4 0  9995,2 52454  53.2181 342.1082 0001147  84.6335 275.4788 15.08837564 57655,6917.888,95.438,540.546,538.959,0.0
52454.0,STARLINK-3888,PAYLOAD,2023-05-21 18:18:28,15.0883037,0.0001096,53.2179,341.2138,105.2814,254.83,-0.00012171,-2.224e-05,0.0,0 STARLINK-3888,1 52454U 22049D   23141.76282525 -.00002224  00000-0 -12171-3 0  9992,2 52454  53.2179 341.2138 0001096 105.2814 254.8300 15.08830370 57681,6917.91,95.438,540.533,539.017,0.0
52454.0,STARLINK-3888,PAYLOAD,2023-05-21 23:04:38,15.08827852,0.0001051,53.2182,340.3233,83.0441,277.067,-0.00010329,-1.931e-05,0.0,0 STARLINK-3888,1 52454U 22049D   23141.96155419 -.00001931  00000-0 -10329-3 0  9992,2 52454  53.2182 340.3233 0001051  83.0441 277.0670 15.08827852 57870,6917.918,95.438,540.51,539.055,0.0
52454.0,STARLINK-3888,PAYLOAD,2023-05-22 13:23:05,15.08843298,8.14e-05,53.2183,337.648,92.8719,267.2366,-7.7429e-06,-4.11e-06,0.0,0 STARLINK-3888,1 52454U 22049D   23142.55770413 -.00000411  00000-0 -77429-5 0  9993,2 52454  53.2183 337.6480 0000814  92.8719 267.2366 15.08843298 57804,6917.87,95.437,540.298,539.172,0.0
